1 45669U 20035N   23108.27420870  .00007988  00000-0  55450-3 0  9998
2 45669  53.0518 129.0487 0001350  79.3283 280.7858 15.06404864159085
1 45669U 20035N   23108.47325161  .00004348  00000-0  31070-3 0  9996
2 45669  53.0525 128.1561 0001447  78.2687 281.8464 15.06391372159533
1 45669U 20035N   23108.47325161  .00004348  00000-0  31070-3 0  9996
2 45669  53.0525 128.1561 0001447  78.2687 281.8464 15.06391372159117
1 45669U 20035N   23109.26941411  .00004173  00000-0  29884-3 0  9992
2 45669  53.0519 124.5825 0001439  69.2541 290.8602 15.06403153159657
1 45669U 20035N   23109.73384473  .00004302  00000-0  30755-3 0  9996
2 45669  53.0518 122.4966 0001457  78.1569 281.9583 15.06397954159726
1 45669U 20035N   23110.06558214  .00002378  00000-0  17853-3 0  9995
2 45669  53.0529 121.0075 0001889  99.4382 260.6820 15.06393082159357
1 45669U 20035N   23110.46366905  .00001056  00000-0  89800-4 0  9997
2 45669  53.0526 119.2206 0001603  86.9655 273.1517 15.06386228159836
1 45669U 20035N   23110.72905480  .00000877  00000-0  77815-4 0  9996
2 45669  53.0534 118.0302 0001608  82.0248 278.0923 15.06392281159874
1 45669U 20035N   23111.25982509  .00002343  00000-0  17610-3 0  9998
2 45669  53.0526 115.6463 0001447  85.2062 274.9093 15.06401516159534
1 45669U 20035N   23111.72425408  .00002588  00000-0  19257-3 0  9990
2 45669  53.0518 113.5613 0001308  92.5598 267.5541 15.06400261160028
1 45669U 20035N   23112.25503284  .00002456  00000-0  18372-3 0  9999
2 45669  53.0520 111.1777 0001432  91.5419 268.5734 15.06395668160103
1 45669U 20035N   23112.71945502  .00003207  00000-0  23404-3 0  9990
2 45669  53.0521 109.0929 0001465  90.8227 269.2930 15.06405966160170
1 45669U 20035N   23113.38290688  .00005453  00000-0  38442-3 0  9995
2 45669  53.0516 106.1137 0001273  89.0695 271.0440 15.06426190160279
1 45669U 20035N   23113.38290688  .00005453  00000-0  38442-3 0  9995
2 45669  53.0516 106.1137 0001273  89.0695 271.0440 15.06426190159851
1 45669U 20035N   23114.37811583  .00004972  00000-0  35227-3 0  9991
2 45669  53.0530 101.6486 0002814  68.8677 291.2613 15.06422106160425
1 45669U 20035N   23114.37811583  .00004972  00000-0  35227-3 0  9991
2 45669  53.0530 101.6486 0002814  68.8677 291.2613 15.06422106160009
1 45669U 20035N   23115.30694850  .00011293  00000-0  77506-3 0  9991
2 45669  53.0532  97.4775 0001271  93.0743 267.0391 15.06435381160568
1 45669U 20035N   23116.10313823 -.00009328  00000-0 -60875-3 0  9997
2 45669  53.0537  93.9015 0001675 101.2426 258.8752 15.06360578160260
1 45669U 20035N   23116.30218537 -.00006117  00000-0 -39248-3 0  9998
2 45669  53.0542  93.0097 0001430  79.5694 280.5456 15.06364498160718
1 45669U 20035N   23116.63392911  .00000553  00000-0  56059-4 0  9999
2 45669  53.0543  91.5207 0001482  79.1327 280.9828 15.06363876160762
1 45669U 20035N   23117.16471529  .00009607  00000-0  66344-3 0  9997
2 45669  53.0536  89.1376 0001453  80.2831 279.8322 15.06373149160428
1 45669U 20035N   23117.36375828  .00012275  00000-0  84194-3 0  9992
2 45669  53.0534  88.2443 0001485  79.9665 280.1492 15.06381126160872
1 45669U 20035N   23118.22626456  .00016255  00000-0  11072-2 0  9990
2 45669  53.0535  84.3726 0001518  83.1496 276.9666 15.06414486160580
1 45669U 20035N   23118.29261032  .00016855  00000-0  11472-2 0  9992
2 45669  53.0534  84.0746 0001515  83.3341 276.7820 15.06417807161015
1 45669U 20035N   23119.28778519  .00018841  00000-0  12784-2 0  9999
2 45669  53.0531  79.6067 0001523  86.2168 273.8995 15.06457203161167
1 45669U 20035N   23119.28778519  .00018841  00000-0  12784-2 0  9999
2 45669  53.0531  79.6067 0001523  86.2168 273.8995 15.06457203160740
1 45669U 20035N   23120.34934391  .00002353  00000-0  17682-3 0  9994
2 45669  53.0536  74.8413 0001468  93.1905 266.9252 15.06394107161328
1 45669U 20035N   23120.34934391  .00002353  00000-0  17682-3 0  9994
2 45669  53.0536  74.8413 0001468  93.1905 266.9252 15.06394107160901
1 45669U 20035N   23121.14550401  .00013560  00000-0  92713-3 0  9999
2 45669  53.0549  71.2662 0001518 100.7740 259.3420 15.06413059161025
1 45669U 20035N   23121.27819581  .00014091  00000-0  96250-3 0  9990
2 45669  53.0553  70.6700 0001490  97.2971 262.8187 15.06418062161467
1 45669U 20035N   23122.07436457  .00001862  00000-0  14388-3 0  9990
2 45669  53.0555  67.0865 0002328 139.2539 220.8625 15.06393396161169
1 45669U 20035N   23122.53879739  .00006588  00000-0  46079-3 0  9997
2 45669  53.0551  65.0117 0001364 107.0897 253.0242 15.06398353161657
1 45669U 20035N   23122.87053128  .00014230  00000-0  97209-3 0  9994
2 45669  53.0542  63.5220 0001144 101.5940 258.5178 15.06407355161706
1 45669U 20035N   23123.20225971  .00016998  00000-0  11565-2 0  9992
2 45669  53.0547  62.0337 0001241 104.8447 255.2680 15.06423996161756
1 45669U 20035N   23123.20225971  .00016998  00000-0  11565-2 0  9992
2 45669  53.0547  62.0337 0001241 104.8447 255.2680 15.06423996161330
1 45669U 20035N   23123.86573296  .00004381  00000-0  31280-3 0  9990
2 45669  53.0549  59.0550 0001337 110.8586 249.2546 15.06402679161858
1 45669U 20035N   23123.86573296  .00004381  00000-0  31280-3 0  9990
2 45669  53.0549  59.0550 0001337 110.8586 249.2546 15.06402679161432
1 45669U 20035N   23124.19747121  .00003683  00000-0  26610-3 0  9992
2 45669  53.0536  57.5651 0001098 114.1130 245.9974 15.06391606161489
1 45669U 20035N   23124.79459566  .00022788  00000-0  15433-2 0  9998
2 45669  53.0548  54.8857 0001240  85.7346 274.3784 15.06411525161995
1 45669U 20035N   23125.19266851  .00020253  00000-0  13735-2 0  9994
2 45669  53.0547  53.0987 0001132  92.2062 267.9057 15.06430238162058
1 45669U 20035N   23125.19266851  .00020253  00000-0  13735-2 0  9994
2 45669  53.0547  53.0987 0001132  92.2062 267.9057 15.06430238161631
1 45669U 20035N   23126.05519276  .00026118  00000-0  17660-2 0  9999
2 45669  53.0552  49.2275 0001747  85.3177 274.8011 15.06396293161769
1 45669U 20035N   23126.18788569  .00033623  00000-0  22661-2 0  9992
2 45669  53.0549  48.6328 0001025  61.6287 298.4805 15.06388097162201
1 45669U 20035N   23127.05038468  .00029770  00000-0  20067-2 0  9991
2 45669  53.0557  44.7606 0001159  72.8239 287.2877 15.06442840161914
1 45669U 20035N   23127.18307332  .00025390  00000-0  17150-2 0  9997
2 45669  53.0553  44.1647 0001163  72.0849 288.0266 15.06449815162352
1 45669U 20035N   23127.91290881  .00022310  00000-0  15128-2 0  9990
2 45669  53.0549  40.8883 0001088 119.2355 240.8743 15.06377340162465
1 45669U 20035N   23128.04560621  .00028904  00000-0  19527-2 0  9999
2 45669  53.0552  40.2926 0001067 110.5162 249.5941 15.06375077162065
1 45669U 20035N   23128.44369248  .00026947  00000-0  18216-2 0  9994
2 45669  53.0552  38.5066 0001083 114.2714 245.8389 15.06388387162122
1 45669U 20035N   23128.90811861  .00028689  00000-0  19363-2 0  9997
2 45669  53.0549  36.4217 0001036 115.9913 244.1182 15.06414741162611
1 45669U 20035N   23128.97446456  .00029051  00000-0  19602-2 0  9998
2 45669  53.0549  36.1239 0001024 115.6763 244.4332 15.06418580162625
1 45669U 20035N   23130.03601926  .00012635  00000-0  86567-3 0  9998
2 45669  53.0544  31.3582 0001070 112.2197 247.8906 15.06395520162782
1 45669U 20035N   23130.83217050  .00032835  00000-0  22104-2 0  9997
2 45669  53.0544  27.7836 0000886  94.6483 265.4607 15.06443895162905
1 45669U 20035N   23130.83217050  .00032835  00000-0  22104-2 0  9997
2 45669  53.0544  27.7836 0000886  94.6483 265.4607 15.06443895162488
1 45669U 20035N   23131.03120412  .00021561  00000-0  14601-2 0  9992
2 45669  53.0543  26.8906 0000917  95.6073 264.5020 15.06446682162932
1 45669U 20035N   23131.03120412  .00021561  00000-0  14601-2 0  9992
2 45669  53.0543  26.8906 0000917  95.6073 264.5020 15.06446682162516
1 45669U 20035N   23131.96007325  .00012334  00000-0  84538-3 0  9996
2 45669  53.0544  22.7199 0001200  92.1743 267.9383 15.06404743163071
1 45669U 20035N   23132.15911977  .00022627  00000-0  15339-2 0  9993
2 45669  53.0546  21.8265 0001200  74.8696 285.2426 15.06379660162687
1 45669U 20035N   23132.88893288  .00036343  00000-0  24444-2 0  9994
2 45669  53.0546  18.5512 0000962  49.0447 311.0625 15.06427000163218
1 45669U 20035N   23132.95527823  .00037051  00000-0  24911-2 0  9997
2 45669  53.0546  18.2533 0000978  52.7738 307.3340 15.06432049163221
1 45669U 20035N   23132.95527823  .00037051  00000-0  24911-2 0  9997
2 45669  53.0546  18.2533 0000978  52.7738 307.3340 15.06432049162804
1 45669U 20035N   23133.88413987  .00021847  00000-0  14808-2 0  9995
2 45669  53.0546  14.0825 0000868  69.2984 290.8098 15.06405568162943
1 45669U 20035N   23133.95048739  .00017220  00000-0  11722-2 0  9994
2 45669  53.0558  13.7818 0001150  73.2610 286.8505 15.06397853163373
1 45669U 20035N   23133.95048739  .00017220  00000-0  11722-2 0  9994
2 45669  53.0558  13.7818 0001150  73.2610 286.8505 15.06397853162956
1 45669U 20035N   23134.87933507  .00011856  00000-0  81302-3 0  9993
2 45669  53.0568   9.6183 0001336  90.8826 269.2316 15.06421299163516
1 45669U 20035N   23135.34376044 -.00001364  00000-0 -72689-4 0  9997
2 45669  53.0553   7.5320 0001126  87.5221 272.5896 15.06412775163585
1 45669U 20035N   23135.34376044 -.00001364  00000-0 -72689-4 0  9997
2 45669  53.0553   7.5320 0001126  87.5221 272.5896 15.06412775163169
1 45669U 20035N   23135.60914801 -.00002757  00000-0 -16624-3 0  9998
2 45669  53.0569   6.3465 0001598 110.0781 250.0380 15.06406647163620
1 45669U 20035N   23135.94089265 -.00006884  00000-0 -44400-3 0  9990
2 45669  53.0558   4.8503 0000659 100.5534 259.5529 15.06379824163255
1 45669U 20035N   23136.60437579  .00011862  00000-0  81438-3 0  9991
2 45669  53.0546   1.8701 0000827  97.5253 262.5829 15.06376897163770
1 45669U 20035N   23136.73706937  .00016521  00000-0  11258-2 0  9991
2 45669  53.0548   1.2762 0000960 107.2046 252.9048 15.06386393163790
1 45669U 20035N   23137.00245734  .00017569  00000-0  11955-2 0  9992
2 45669  53.0546   0.0847 0001056 113.7562 246.3538 15.06396807163412
